[{"OBJECT_NAME":"STARLINK-6032","OBJECT_ID":"2023-099AV","EPOCH":"2026-03-09T12:52:49.273824","MEAN_MOTION":15.02535139,"ECCENTRICITY":0.00013649,"INCLINATION":43.0022,"RA_OF_ASC_NODE":236.7639,"ARG_OF_PERICENTER":276.1877,"MEAN_ANOMALY":83.881,"EPHEMERIS_TYPE":0,"CLASSIFICATION_TYPE":"U","NORAD_CAT_ID":57371,"ELEMENT_SET_NO":999,"REV_AT_EPOCH":14624,"BSTAR":1.9683559e-5,"MEAN_MOTION_DOT":6.2e-7,"MEAN_MOTION_DDOT":0},{"OBJECT_NAME":"UM5-EOSAT","OBJECT_ID":"2024-149CR","EPOCH":"2026-03-09T17:21:09.122400","MEAN_MOTION":15.00894746,"ECCENTRICITY":0.00087192,"INCLINATION":97.6855,"RA_OF_ASC_NODE":148.6787,"ARG_OF_PERICENTER":107.8964,"MEAN_ANOMALY":252.3212,"EPHEMERIS_TYPE":0,"CLASSIFICATION_TYPE":"U","NORAD_CAT_ID":60555,"ELEMENT_SET_NO":999,"REV_AT_EPOCH":8529,"BSTAR":0.00036077282,"MEAN_MOTION_DOT":4.537e-5,"MEAN_MOTION_DDOT":0}]
